start=new Date('2022-07-05T00:00:00.000Z').valueOf();
sats=[{"CENTER_NAME":"EARTH","OBJECT_TYPE":"PAYLOAD","MEAN_ELEMENT_THEORY":"SGP4","EPHEMERIS_TYPE":"0","GP_ID":"207417620","MEAN_MOTION_DDOT":"0.0000000000000","OBJECT_NAME":"STARLINK-2061","SEMIMAJOR_AXIS":"6925.388","MEAN_ANOMALY":"281.8388","REV_AT_EPOCH":"6563","EPOCH":"2022-07-04T21:29:57.863904","LAUNCH_DATE":"2021-04-29","PERIOD":"95.593","TLE_LINE2":"2 48312  53.0565   4.1515 0001681  78.2789 281.8388 15.06386992 65634","BSTAR":"-0.00014096000000","CLASSIFICATION_TYPE":"U","ELEMENT_SET_NO":"999","MEAN_MOTION_DOT":"-0.00002380","FILE":"3507746","COUNTRY_CODE":"US","DECAY_DATE":null,"NORAD_CAT_ID":"48312","RA_OF_ASC_NODE":"4.1515","PERIAPSIS":"546.089","TIME_SYSTEM":"UTC","INCLINATION":"53.0565","RCS_SIZE":"LARGE","APOAPSIS":"548.418","ARG_OF_PERICENTER":"78.2789","ECCENTRICITY":"0.00016810","MEAN_MOTION":"15.06386992","TLE_LINE1":"1 48312U 21036AN  22185.89580861 -.00002380  00000-0 -14096-3 0  9991","OBJECT_ID":"2021-036AN","REF_FRAME":"TEME","SITE":"AFETR"},{"NORAD_CAT_ID":"48313","DECAY_DATE":null,"APOAPSIS":"548.162","RCS_SIZE":"LARGE","ARG_OF_PERICENTER":"78.6598","INCLINATION":"53.0563","TIME_SYSTEM":"UTC","PERIAPSIS":"546.293","RA_OF_ASC_NODE":"4.4495","ECCENTRICITY":"0.00013490","SITE":"AFETR","REF_FRAME":"TEME","TLE_LINE1":"1 48313U 21036AP  22185.82576252 -.00001087  00000-0 -54076-4 0  9990","OBJECT_ID":"2021-036AP","MEAN_MOTION":"15.06395463","MEAN_ELEMENT_THEORY":"SGP4","OBJECT_TYPE":"PAYLOAD","CENTER_NAME":"EARTH","MEAN_MOTION_DDOT":"0.0000000000000","GP_ID":"207416381","EPHEMERIS_TYPE":"0","EPOCH":"2022-07-04T19:49:05.881728","MEAN_ANOMALY":"281.4543","REV_AT_EPOCH":"6561","OBJECT_NAME":"STARLINK-2541","SEMIMAJOR_AXIS":"6925.362","MEAN_MOTION_DOT":"-0.00001087","FILE":"3507746","COUNTRY_CODE":"US","TLE_LINE2":"2 48313  53.0563   4.4495 0001349  78.6598 281.4543 15.06395463 65616","PERIOD":"95.592","BSTAR":"-0.00005407600000","CLASSIFICATION_TYPE":"U","ELEMENT_SET_NO":"999","LAUNCH_DATE":"2021-04-29"},{"OBJECT_TYPE":"PAYLOAD","MEAN_ELEMENT_THEORY":"SGP4","CENTER_NAME":"EARTH","MEAN_MOTION_DDOT":"0.0000000000000","EPHEMERIS_TYPE":"0","GP_ID":"207416131","EPOCH":"2022-07-04T21:19:20.941248","SEMIMAJOR_AXIS":"6925.399","OBJECT_NAME":"STARLINK-2549","REV_AT_EPOCH":"6562","MEAN_ANOMALY":"274.1868","COUNTRY_CODE":"US","FILE":"3507746","MEAN_MOTION_DOT":"-0.00001143","LAUNCH_DATE":"2021-04-29","ELEMENT_SET_NO":"999","BSTAR":"-0.00005785700000","TLE_LINE2":"2 48314  53.0564   4.1883 0001439  85.9285 274.1868 15.06383539 65621","PERIOD":"95.593","CLASSIFICATION_TYPE":"U","NORAD_CAT_ID":"48314","DECAY_DATE":null,"INCLINATION":"53.0564","ARG_OF_PERICENTER":"85.9285","RCS_SIZE":"LARGE","APOAPSIS":"548.261","PERIAPSIS":"546.267","RA_OF_ASC_NODE":"4.1883","TIME_SYSTEM":"UTC","ECCENTRICITY":"0.00014390","REF_FRAME":"TEME","SITE":"AFETR","MEAN_MOTION":"15.06383539","TLE_LINE1":"1 48314U 21036AQ  22185.88843682 -.00001143  00000-0 -57857-4 0  9994","OBJECT_ID":"2021-036AQ"},{"DECAY_DATE":null,"NORAD_CAT_ID":"48315","RA_OF_ASC_NODE":"4.1852","PERIAPSIS":"546.230","TIME_SYSTEM":"UTC","INCLINATION":"53.0556","APOAPSIS":"548.297","RCS_SIZE":"LARGE","ARG_OF_PERICENTER":"83.5843","ECCENTRICITY":"0.00014930","MEAN_MOTION":"15.06383715","OBJECT_ID":"2021-036AR","TLE_LINE1":"1 48315U 21036AR  22185.88380925 -.00002595  00000-0 -15545-3 0  9990","REF_FRAME":"TEME","SITE":"AFETR","CENTER_NAME":"EARTH","OBJECT_TYPE":"PAYLOAD","MEAN_ELEMENT_THEORY":"SGP4","EPHEMERIS_TYPE":"0","GP_ID":"207416879","MEAN_MOTION_DDOT":"0.0000000000000","SEMIMAJOR_AXIS":"6925.398","OBJECT_NAME":"STARLINK-2506","REV_AT_EPOCH":"6562","MEAN_ANOMALY":"276.5316","EPOCH":"2022-07-04T21:12:41.119200","LAUNCH_DATE":"2021-04-29","ELEMENT_SET_NO":"999","TLE_LINE2":"2 48315  53.0556   4.1852 0001493  83.5843 276.5316 15.06383715 65623","PERIOD":"95.593","BSTAR":"-0.00015545000000","CLASSIFICATION_TYPE":"U","COUNTRY_CODE":"US","FILE":"3507746","MEAN_MOTION_DOT":"-0.00002595"},{"ECCENTRICITY":"0.00014950","REF_FRAME":"TEME","SITE":"AFETR","MEAN_MOTION":"15.06382507","TLE_LINE1":"1 48316U 21036AS  22185.88106978 -.00002775  00000-0 -16753-3 0  9997","OBJECT_ID":"2021-036AS","NORAD_CAT_ID":"48316","DECAY_DATE":null,"INCLINATION":"53.0553","ARG_OF_PERICENTER":"72.5870","RCS_SIZE":"LARGE","APOAPSIS":"548.303","PERIAPSIS":"546.232","RA_OF_ASC_NODE":"4.2097","TIME_SYSTEM":"UTC","EPOCH":"2022-07-04T21:08:44.428992","SEMIMAJOR_AXIS":"6925.402","OBJECT_NAME":"STARLINK-2507","REV_AT_EPOCH":"6562","MEAN_ANOMALY":"287.5282","COUNTRY_CODE":"US","MEAN_MOTION_DOT":"-0.00002775","FILE":"3507746","LAUNCH_DATE":"2021-04-29","ELEMENT_SET_NO":"999","TLE_LINE2":"2 48316  53.0553   4.2097 0001495  72.5870 287.5282 15.06382507 65625","CLASSIFICATION_TYPE":"U","PERIOD":"95.593","BSTAR":"-0.00016753000000","OBJECT_TYPE":"PAYLOAD","MEAN_ELEMENT_THEORY":"SGP4","CENTER_NAME":"EARTH","MEAN_MOTION_DDOT":"0.0000000000000","EPHEMERIS_TYPE":"0","GP_ID":"207417121"},{"REF_FRAME":"TEME","SITE":"AFETR","MEAN_MOTION":"15.06384918","TLE_LINE1":"1 48317U 21036AT  22185.87738125 -.00002363  00000-0 -13985-3 0  9999","OBJECT_ID":"2021-036AT","ECCENTRICITY":"0.00014480","INCLINATION":"53.0550","RCS_SIZE":"LARGE","ARG_OF_PERICENTER":"69.2746","APOAPSIS":"548.263","RA_OF_ASC_NODE":"4.2305","PERIAPSIS":"546.257","TIME_SYSTEM":"UTC","NORAD_CAT_ID":"48317","DECAY_DATE":null,"MEAN_MOTION_DOT":"-0.00002363","FILE":"3507746","COUNTRY_CODE":"US","LAUNCH_DATE":"2021-04-29","TLE_LINE2":"2 48317  53.0550   4.2305 0001448  69.2746 290.8398 15.06384918 65621","BSTAR":"-0.00013985000000","PERIOD":"95.593","CLASSIFICATION_TYPE":"U","ELEMENT_SET_NO":"999","EPOCH":"2022-07-04T21:03:25.740000","OBJECT_NAME":"STARLINK-2513","SEMIMAJOR_AXIS":"6925.395","MEAN_ANOMALY":"290.8398","REV_AT_EPOCH":"6562","MEAN_MOTION_DDOT":"0.0000000000000","EPHEMERIS_TYPE":"0","GP_ID":"207415882","OBJECT_TYPE":"PAYLOAD","MEAN_ELEMENT_THEORY":"SGP4","CENTER_NAME":"EARTH"},{"COUNTRY_CODE":"US","MEAN_MOTION_DOT":"-0.00000504","FILE":"3507746","ELEMENT_SET_NO":"999","PERIOD":"95.593","TLE_LINE2":"2 48318  53.0549  14.5740 0001350  72.3992 287.7144 15.06394128 65478","CLASSIFICATION_TYPE":"U","BSTAR":"-0.00001496400000","LAUNCH_DATE":"2021-04-29","EPOCH":"2022-07-04T19:15:55.305216","REV_AT_EPOCH":"6547","MEAN_ANOMALY":"287.7144","SEMIMAJOR_AXIS":"6925.367","OBJECT_NAME":"STARLINK-2509","MEAN_MOTION_DDOT":"0.0000000000000","GP_ID":"207416631","EPHEMERIS_TYPE":"0","MEAN_ELEMENT_THEORY":"SGP4","OBJECT_TYPE":"PAYLOAD","CENTER_NAME":"EARTH","SITE":"AFETR","REF_FRAME":"TEME","OBJECT_ID":"2021-036AU","TLE_LINE1":"1 48318U 21036AU  22185.80272344 -.00000504  00000-0 -14964-4 0  9993","MEAN_MOTION":"15.06394128","ECCENTRICITY":"0.00013500","RCS_SIZE":"LARGE","APOAPSIS":"548.166","ARG_OF_PERICENTER":"72.3992","INCLINATION":"53.0549","TIME_SYSTEM":"UTC","RA_OF_ASC_NODE":"14.5740","PERIAPSIS":"546.297","NORAD_CAT_ID":"48318","DECAY_DATE":null},{"GP_ID":"207417379","EPHEMERIS_TYPE":"0","MEAN_MOTION_DDOT":"0.0000000000000","CENTER_NAME":"EARTH","MEAN_ELEMENT_THEORY":"SGP4","OBJECT_TYPE":"PAYLOAD","CLASSIFICATION_TYPE":"U","TLE_LINE2":"2 48319  53.0573  14.5808 0001483  78.2182 281.8973 15.06385801 65477","PERIOD":"95.593","BSTAR":"-0.00013457000000","ELEMENT_SET_NO":"999","LAUNCH_DATE":"2021-04-29","FILE":"3507746","MEAN_MOTION_DOT":"-0.00002285","COUNTRY_CODE":"US","MEAN_ANOMALY":"281.8973","REV_AT_EPOCH":"6547","OBJECT_NAME":"STARLINK-2512","SEMIMAJOR_AXIS":"6925.392","EPOCH":"2022-07-04T19:09:16.178688","TIME_SYSTEM":"UTC","PERIAPSIS":"546.230","RA_OF_ASC_NODE":"14.5808","RCS_SIZE":"LARGE","ARG_OF_PERICENTER":"78.2182","APOAPSIS":"548.284","INCLINATION":"53.0573","DECAY_DATE":null,"NORAD_CAT_ID":"48319","OBJECT_ID":"2021-036AV","TLE_LINE1":"1 48319U 21036AV  22185.79810392 -.00002285  00000-0 -13457-3 0  9996","MEAN_MOTION":"15.06385801","SITE":"AFETR","REF_FRAME":"TEME","ECCENTRICITY":"0.00014830"},{"MEAN_MOTION":"15.06394153","OBJECT_ID":"2021-036AW","TLE_LINE1":"1 48320U 21036AW  22185.79535414 -.00000511  00000-0 -15415-4 0  9994","REF_FRAME":"TEME","SITE":"AFETR","ECCENTRICITY":"0.00013550","RA_OF_ASC_NODE":"14.6041","PERIAPSIS":"546.293","TIME_SYSTEM":"UTC","INCLINATION":"53.0557","RCS_SIZE":"LARGE","APOAPSIS":"548.170","ARG_OF_PERICENTER":"74.4257","DECAY_DATE":null,"NORAD_CAT_ID":"48320","LAUNCH_DATE":"2021-04-29","PERIOD":"95.593","TLE_LINE2":"2 48320  53.0557  14.6041 0001355  74.4257 285.6881 15.06394153 65470","BSTAR":"-0.00001541500000","CLASSIFICATION_TYPE":"U","ELEMENT_SET_NO":"999","MEAN_MOTION_DOT":"-0.00000511","FILE":"3507746","COUNTRY_CODE":"US","OBJECT_NAME":"STARLINK-2029","SEMIMAJOR_AXIS":"6925.366","MEAN_ANOMALY":"285.6881","REV_AT_EPOCH":"6547","EPOCH":"2022-07-04T19:05:18.597696","EPHEMERIS_TYPE":"0","GP_ID":"207417621","MEAN_MOTION_DDOT":"0.0000000000000","CENTER_NAME":"EARTH","OBJECT_TYPE":"PAYLOAD","MEAN_ELEMENT_THEORY":"SGP4"},{"ECCENTRICITY":"0.00014390","SITE":"AFETR","REF_FRAME":"TEME","OBJECT_ID":"2021-036AX","TLE_LINE1":"1 48321U 21036AX  22185.85801463 -.00001004  00000-0 -48537-4 0  9991","MEAN_MOTION":"15.06398996","NORAD_CAT_ID":"48321","DECAY_DATE":null,"APOAPSIS":"548.213","RCS_SIZE":"LARGE","ARG_OF_PERICENTER":"72.9361","INCLINATION":"53.0568","TIME_SYSTEM":"UTC","PERIAPSIS":"546.220","RA_OF_ASC_NODE":"14.3147","EPOCH":"2022-07-04T20:35:32.464032","REV_AT_EPOCH":"6548","MEAN_ANOMALY":"287.1785","SEMIMAJOR_AXIS":"6925.352","OBJECT_NAME":"STARLINK-2457","COUNTRY_CODE":"US","MEAN_MOTION_DOT":"-0.00001004","FILE":"3507746","ELEMENT_SET_NO":"999","BSTAR":"-0.00004853700000","TLE_LINE2":"2 48321  53.0568  14.3147 0001439  72.9361 287.1785 15.06398996 65489","PERIOD":"95.592","CLASSIFICATION_TYPE":"U","LAUNCH_DATE":"2021-04-29","MEAN_ELEMENT_THEORY":"SGP4","OBJECT_TYPE":"PAYLOAD","CENTER_NAME":"EARTH","MEAN_MOTION_DDOT":"0.0000000000000","GP_ID":"207416382","EPHEMERIS_TYPE":"0"}];
